STARLINK-5424           
1 54811U 22175BF  26068.25888170  .00012095  00000+0  77622-3 0  9990
2 54811  53.2194  26.1027 0001276  93.2399 266.8740 15.08863318180133
LEMUR-2-KREMPEL-BRO2    
1 63353U 25061C   26068.86379735  .00007837  00000+0  44347-3 0  9993
2 63353  97.5616  45.5365 0017925 236.8576 123.0936 15.13192951 52586
